TIANMU-1 10             
1 57402U 23101D   26116.46568422  .00007676  00000+0  27238-3 0  9998
2 57402  97.2667 168.5491 0002866 339.1689  20.9435 15.29326866153732
FENGYUN 3F              
1 57490U 23111A   26116.46391933  .00000058  00000+0  47525-4 0  9996
2 57490  98.6861 187.4307 0000898 113.1072 247.0199 14.19929703141525
ARKTIKA-M 2             
1 58584U 23198A   26110.92958556  .00000217  00000+0  00000+0 0  9990
2 58584  63.2192 160.7194 6953303 267.0904  18.4710  2.00586979 17173
TIANMU-1 11             
1 58645U 23205A   26116.53723132  .00006507  00000+0  25218-3 0  9990
2 58645  97.3490 138.9180 0009124 174.7770 185.3566 15.26449346129641
TIANMU-1 12             
1 58646U 23205B   26116.50609441  .00006395  00000+0  24835-3 0  9993
2 58646  97.3478 138.6542 0007976 156.8703 203.2896 15.26394576129625
TIANMU-1 13             
1 58647U 23205C   26116.53538019  .00006802  00000+0  26347-3 0  9992
2 58647  97.3506 138.9430 0008787 140.9865 219.2009 15.26448230129621
TIANMU-1 14             
1 58648U 23205D   26116.52077440  .00006712  00000+0  26023-3 0  9999
2 58648  97.3440 138.1544 0009386 145.6599 214.5249 15.26420105129624
TIANMU-1 19             
1 58660U 23208A   26116.52818130  .00010931  00000+0  37004-3 0  9994
2 58660  97.4436 232.6153 0006293 131.7123 228.4657 15.30752090129424
TIANMU-1 20             
1 58661U 23208B   26116.47548248  .00011273  00000+0  36759-3 0  9995
2 58661  97.4377 233.1445 0008294 141.0414 219.1427 15.31939601129506
TIANMU-1 21             
1 58662U 23208C   26116.47403001  .00013182  00000+0  40115-3 0  9995
2 58662  97.4435 235.6065 0008294 135.9722 224.2182 15.34108030129637
TIANMU-1 22             
1 58663U 23208D   26116.55895733  .00009384  00000+0  32266-3 0  9999
2 58663  97.4433 232.6234 0004660 147.5701 212.5826 15.30297100129436
TIANMU-1 15             
1 58700U 24004A   26116.51777961  .00007487  00000+0  28975-3 0  9998
2 58700  97.4680 302.7170 0007601 159.8286 200.3254 15.26460138127898
TIANMU-1 16             
1 58701U 24004B   26116.50011557  .00007047  00000+0  27268-3 0  9996
2 58701  97.4625 301.9894 0005972 159.5808 200.5670 15.26497909127898
TIANMU-1 17             
1 58702U 24004C   26116.54972501  .00007114  00000+0  27652-3 0  9998
2 58702  97.4654 302.5076 0005757 164.1024 196.0396 15.26346227127893
TIANMU-1 18             
1 58703U 24004D   26116.53405321  .00006814  00000+0  26413-3 0  9999
2 58703  97.4673 302.7168 0004662 155.2224 204.9239 15.26459450127894
INSAT-3DS               
1 58990U 24033A   26116.51027323 -.00000168  00000+0  00000+0 0  9996
2 58990   0.0913  86.7241 0001937 299.4463  94.1071  1.00270689 46556
METEOR-M2 4             
1 59051U 24039A   26116.55229955  .00000024  00000+0  30601-4 0  9995
2 59051  98.6975  76.5108 0006454 327.8914  32.1870 14.22423948111920
