[{"OBJECT_NAME":"TIANMU-1 10","OBJECT_ID":"2023-101D","EPOCH":"2026-04-26T11:10:35.116608","MEAN_MOTION":15.29326866,"ECCENTRICITY":0.0002866,"INCLINATION":97.2667,"RA_OF_ASC_NODE":168.5491,"ARG_OF_PERICENTER":339.1689,"MEAN_ANOMALY":20.9435,"EPHEMERIS_TYPE":0,"CLASSIFICATION_TYPE":"U","NORAD_CAT_ID":57402,"ELEMENT_SET_NO":999,"REV_AT_EPOCH":15373,"BSTAR":0.00027238,"MEAN_MOTION_DOT":7.676e-5,"MEAN_MOTION_DDOT":0},{"OBJECT_NAME":"FENGYUN 3F","OBJECT_ID":"2023-111A","EPOCH":"2026-04-26T11:08:02.630112","MEAN_MOTION":14.19929703,"ECCENTRICITY":8.98e-5,"INCLINATION":98.6861,"RA_OF_ASC_NODE":187.4307,"ARG_OF_PERICENTER":113.1072,"MEAN_ANOMALY":247.0199,"EPHEMERIS_TYPE":0,"CLASSIFICATION_TYPE":"U","NORAD_CAT_ID":57490,"ELEMENT_SET_NO":999,"REV_AT_EPOCH":14152,"BSTAR":4.7525e-5,"MEAN_MOTION_DOT":5.8e-7,"MEAN_MOTION_DDOT":0},{"OBJECT_NAME":"ARKTIKA-M 2","OBJECT_ID":"2023-198A","EPOCH":"2026-04-20T22:18:36.192384","MEAN_MOTION":2.00586979,"ECCENTRICITY":0.69533035,"INCLINATION":63.2192,"RA_OF_ASC_NODE":160.7194,"ARG_OF_PERICENTER":267.0904,"MEAN_ANOMALY":18.471,"EPHEMERIS_TYPE":0,"CLASSIFICATION_TYPE":"U","NORAD_CAT_ID":58584,"ELEMENT_SET_NO":999,"REV_AT_EPOCH":1717,"BSTAR":0,"MEAN_MOTION_DOT":2.17e-6,"MEAN_MOTION_DDOT":0},{"OBJECT_NAME":"TIANMU-1 11","OBJECT_ID":"2023-205A","EPOCH":"2026-04-26T12:53:36.786048","MEAN_MOTION":15.26449346,"ECCENTRICITY":0.0009124,"INCLINATION":97.349,"RA_OF_ASC_NODE":138.918,"ARG_OF_PERICENTER":174.777,"MEAN_ANOMALY":185.3566,"EPHEMERIS_TYPE":0,"CLASSIFICATION_TYPE":"U","NORAD_CAT_ID":58645,"ELEMENT_SET_NO":999,"REV_AT_EPOCH":12964,"BSTAR":0.00025218,"MEAN_MOTION_DOT":6.507e-5,"MEAN_MOTION_DDOT":0},{"OBJECT_NAME":"TIANMU-1 12","OBJECT_ID":"2023-205B","EPOCH":"2026-04-26T12:08:46.557024","MEAN_MOTION":15.26394576,"ECCENTRICITY":0.0007976,"INCLINATION":97.3478,"RA_OF_ASC_NODE":138.6542,"ARG_OF_PERICENTER":156.8703,"MEAN_ANOMALY":203.2896,"EPHEMERIS_TYPE":0,"CLASSIFICATION_TYPE":"U","NORAD_CAT_ID":58646,"ELEMENT_SET_NO":999,"REV_AT_EPOCH":12962,"BSTAR":0.00024835,"MEAN_MOTION_DOT":6.395e-5,"MEAN_MOTION_DDOT":0},{"OBJECT_NAME":"TIANMU-1 13","OBJECT_ID":"2023-205C","EPOCH":"2026-04-26T12:50:56.848416","MEAN_MOTION":15.2644823,"ECCENTRICITY":0.0008787,"INCLINATION":97.3506,"RA_OF_ASC_NODE":138.943,"ARG_OF_PERICENTER":140.9865,"MEAN_ANOMALY":219.2009,"EPHEMERIS_TYPE":0,"CLASSIFICATION_TYPE":"U","NORAD_CAT_ID":58647,"ELEMENT_SET_NO":999,"REV_AT_EPOCH":12962,"BSTAR":0.00026347,"MEAN_MOTION_DOT":6.802e-5,"MEAN_MOTION_DDOT":0},{"OBJECT_NAME":"TIANMU-1 14","OBJECT_ID":"2023-205D","EPOCH":"2026-04-26T12:29:54.908160","MEAN_MOTION":15.26420105,"ECCENTRICITY":0.0009386,"INCLINATION":97.344,"RA_OF_ASC_NODE":138.1544,"ARG_OF_PERICENTER":145.6599,"MEAN_ANOMALY":214.5249,"EPHEMERIS_TYPE":0,"CLASSIFICATION_TYPE":"U","NORAD_CAT_ID":58648,"ELEMENT_SET_NO":999,"REV_AT_EPOCH":12962,"BSTAR":0.00026023,"MEAN_MOTION_DOT":6.712e-5,"MEAN_MOTION_DDOT":0},{"OBJECT_NAME":"TIANMU-1 19","OBJECT_ID":"2023-208A","EPOCH":"2026-04-26T12:40:34.864320","MEAN_MOTION":15.3075209,"ECCENTRICITY":0.0006293,"INCLINATION":97.4436,"RA_OF_ASC_NODE":232.6153,"ARG_OF_PERICENTER":131.7123,"MEAN_ANOMALY":228.4657,"EPHEMERIS_TYPE":0,"CLASSIFICATION_TYPE":"U","NORAD_CAT_ID":58660,"ELEMENT_SET_NO":999,"REV_AT_EPOCH":12942,"BSTAR":0.00037004,"MEAN_MOTION_DOT":0.00010931,"MEAN_MOTION_DDOT":0},{"OBJECT_NAME":"TIANMU-1 20","OBJECT_ID":"2023-208B","EPOCH":"2026-04-26T11:24:41.686272","MEAN_MOTION":15.31939601,"ECCENTRICITY":0.0008294,"INCLINATION":97.4377,"RA_OF_ASC_NODE":233.1445,"ARG_OF_PERICENTER":141.0414,"MEAN_ANOMALY":219.1427,"EPHEMERIS_TYPE":0,"CLASSIFICATION_TYPE":"U","NORAD_CAT_ID":58661,"ELEMENT_SET_NO":999,"REV_AT_EPOCH":12950,"BSTAR":0.00036759,"MEAN_MOTION_DOT":0.00011273,"MEAN_MOTION_DDOT":0},{"OBJECT_NAME":"TIANMU-1 21","OBJECT_ID":"2023-208C","EPOCH":"2026-04-26T11:22:36.192864","MEAN_MOTION":15.3410803,"ECCENTRICITY":0.0008294,"INCLINATION":97.4435,"RA_OF_ASC_NODE":235.6065,"ARG_OF_PERICENTER":135.9722,"MEAN_ANOMALY":224.2182,"EPHEMERIS_TYPE":0,"CLASSIFICATION_TYPE":"U","NORAD_CAT_ID":58662,"ELEMENT_SET_NO":999,"REV_AT_EPOCH":12963,"BSTAR":0.00040115,"MEAN_MOTION_DOT":0.00013182,"MEAN_MOTION_DDOT":0},{"OBJECT_NAME":"TIANMU-1 22","OBJECT_ID":"2023-208D","EPOCH":"2026-04-26T13:24:53.913312","MEAN_MOTION":15.302971,"ECCENTRICITY":0.000466,"INCLINATION":97.4433,"RA_OF_ASC_NODE":232.6234,"ARG_OF_PERICENTER":147.5701,"MEAN_ANOMALY":212.5826,"EPHEMERIS_TYPE":0,"CLASSIFICATION_TYPE":"U","NORAD_CAT_ID":58663,"ELEMENT_SET_NO":999,"REV_AT_EPOCH":12943,"BSTAR":0.00032266,"MEAN_MOTION_DOT":9.384e-5,"MEAN_MOTION_DDOT":0},{"OBJECT_NAME":"TIANMU-1 15","OBJECT_ID":"2024-004A","EPOCH":"2026-04-26T12:25:36.158304","MEAN_MOTION":15.26460138,"ECCENTRICITY":0.0007601,"INCLINATION":97.468,"RA_OF_ASC_NODE":302.717,"ARG_OF_PERICENTER":159.8286,"MEAN_ANOMALY":200.3254,"EPHEMERIS_TYPE":0,"CLASSIFICATION_TYPE":"U","NORAD_CAT_ID":58700,"ELEMENT_SET_NO":999,"REV_AT_EPOCH":12789,"BSTAR":0.00028975,"MEAN_MOTION_DOT":7.487e-5,"MEAN_MOTION_DDOT":0},{"OBJECT_NAME":"TIANMU-1 16","OBJECT_ID":"2024-004B","EPOCH":"2026-04-26T12:00:09.985248","MEAN_MOTION":15.26497909,"ECCENTRICITY":0.0005972,"INCLINATION":97.4625,"RA_OF_ASC_NODE":301.9894,"ARG_OF_PERICENTER":159.5808,"MEAN_ANOMALY":200.567,"EPHEMERIS_TYPE":0,"CLASSIFICATION_TYPE":"U","NORAD_CAT_ID":58701,"ELEMENT_SET_NO":999,"REV_AT_EPOCH":12789,"BSTAR":0.00027268,"MEAN_MOTION_DOT":7.047e-5,"MEAN_MOTION_DDOT":0},{"OBJECT_NAME":"TIANMU-1 17","OBJECT_ID":"2024-004C","EPOCH":"2026-04-26T13:11:36.240864","MEAN_MOTION":15.26346227,"ECCENTRICITY":0.0005757,"INCLINATION":97.4654,"RA_OF_ASC_NODE":302.5076,"ARG_OF_PERICENTER":164.1024,"MEAN_ANOMALY":196.0396,"EPHEMERIS_TYPE":0,"CLASSIFICATION_TYPE":"U","NORAD_CAT_ID":58702,"ELEMENT_SET_NO":999,"REV_AT_EPOCH":12789,"BSTAR":0.00027652,"MEAN_MOTION_DOT":7.114e-5,"MEAN_MOTION_DDOT":0},{"OBJECT_NAME":"TIANMU-1 18","OBJECT_ID":"2024-004D","EPOCH":"2026-04-26T12:49:02.197344","MEAN_MOTION":15.2645945,"ECCENTRICITY":0.0004662,"INCLINATION":97.4673,"RA_OF_ASC_NODE":302.7168,"ARG_OF_PERICENTER":155.2224,"MEAN_ANOMALY":204.9239,"EPHEMERIS_TYPE":0,"CLASSIFICATION_TYPE":"U","NORAD_CAT_ID":58703,"ELEMENT_SET_NO":999,"REV_AT_EPOCH":12789,"BSTAR":0.00026413,"MEAN_MOTION_DOT":6.814e-5,"MEAN_MOTION_DDOT":0},{"OBJECT_NAME":"INSAT-3DS","OBJECT_ID":"2024-033A","EPOCH":"2026-04-26T12:14:47.607072","MEAN_MOTION":1.00270689,"ECCENTRICITY":0.0001937,"INCLINATION":0.0913,"RA_OF_ASC_NODE":86.7241,"ARG_OF_PERICENTER":299.4463,"MEAN_ANOMALY":94.1071,"EPHEMERIS_TYPE":0,"CLASSIFICATION_TYPE":"U","NORAD_CAT_ID":58990,"ELEMENT_SET_NO":999,"REV_AT_EPOCH":4655,"BSTAR":0,"MEAN_MOTION_DOT":-1.68e-6,"MEAN_MOTION_DDOT":0},{"OBJECT_NAME":"METEOR-M2 4","OBJECT_ID":"2024-039A","EPOCH":"2026-04-26T13:15:18.681120","MEAN_MOTION":14.22423948,"ECCENTRICITY":0.0006454,"INCLINATION":98.6975,"RA_OF_ASC_NODE":76.5108,"ARG_OF_PERICENTER":327.8914,"MEAN_ANOMALY":32.187,"EPHEMERIS_TYPE":0,"CLASSIFICATION_TYPE":"U","NORAD_CAT_ID":59051,"ELEMENT_SET_NO":999,"REV_AT_EPOCH":11192,"BSTAR":3.0601e-5,"MEAN_MOTION_DOT":2.4e-7,"MEAN_MOTION_DDOT":0}]
